{"type": "FeatureCollection", "features": [ {"type": "Feature", "properties": {"norad_id": 66979, "name": "STARLINK-36107", "group": "last-30-days", "lat": -17.103831595230112, "lon": -70.17740600550854, "alt_km": 373.5173158779571, "timestamp": "2025-12-25T07:00:32.766171+00:00", "meta": {"OBJECT_NAME": "STARLINK-36107", "OBJECT_ID": "2025-288W", "EPOCH": "2025-12-24T22:00:03.000096", "MEAN_MOTION": 15.67068997, "ECCENTRICITY": 0.0001399, "INCLINATION": 43.0008, "RA_OF_ASC_NODE": 92.7889, "ARG_OF_PERICENTER": 271.5915, "MEAN_ANOMALY": 334.996, "EPHEMERIS_TYPE": 0, "CLASSIFICATION_TYPE": "U", "NORAD_CAT_ID": 66979, "ELEMENT_SET_NO": 999, "REV_AT_EPOCH": 378, "BSTAR": -0.021156992, "MEAN_MOTION_DOT": -0.02039638, "MEAN_MOTION_DDOT": 0}, "tle": {"line1": "1 66979U 25288W   25358.91670139 -.02039638  00000+0 -21157-1 0  9990", "line2": "2 66979  43.0008  92.7889 0001399 271.5915 334.9960 15.67068997  3789"}}, "geometry": {"type": "Point", "coordinates": [-70.17740600550854, -17.103831595230112]}}, {"type": "Feature", "properties": {"norad_id": 66980, "name": "STARLINK-36086", "group": "last-30-days", "lat": -18.329986385289153, "lon": -68.63843273514921, "alt_km": 373.5930955814829, "timestamp": "2025-12-25T07:00:32.766182+00:00", "meta": {"OBJECT_NAME": "STARLINK-36086", "OBJECT_ID": "2025-288X", "EPOCH": "2025-12-24T22:00:03.000096", "MEAN_MOTION": 15.67070723, "ECCENTRICITY": 0.00013948, "INCLINATION": 43.0007, "RA_OF_ASC_NODE": 92.784, "ARG_OF_PERICENTER": 271.9348, "MEAN_ANOMALY": 336.5651, "EPHEMERIS_TYPE": 0, "CLASSIFICATION_TYPE": "U", "NORAD_CAT_ID": 66980, "ELEMENT_SET_NO": 999, "REV_AT_EPOCH": 378, "BSTAR": -0.021139324, "MEAN_MOTION_DOT": -0.02038269, "MEAN_MOTION_DDOT": 0}, "tle": {"line1": "1 66980U 25288X   25358.91670139 -.02038269  00000+0 -21139-1 0  9991", "line2": "2 66980  43.0007  92.7840 0001394 271.9348 336.5651 15.67070723  3781"}}, "geometry": {"type": "Point", "coordinates": [-68.63843273514921, -18.329986385289153]}}, {"type": "Feature", "properties": {"norad_id": 66981, "name": "STARLINK-36142", "group": "last-30-days", "lat": -19.544206902342452, "lon": -67.07625971363754, "alt_km": 373.63230845803446, "timestamp": "2025-12-25T07:00:32.766191+00:00", "meta": {"OBJECT_NAME": "STARLINK-36142", "OBJECT_ID": "2025-288Y", "EPOCH": "2025-12-24T22:00:03.000096", "MEAN_MOTION": 15.67070122, "ECCENTRICITY": 0.00014843, "INCLINATION": 43.0005, "RA_OF_ASC_NODE": 92.7794, "ARG_OF_PERICENTER": 271.5023, "MEAN_ANOMALY": 338.9168, "EPHEMERIS_TYPE": 0, "CLASSIFICATION_TYPE": "U", "NORAD_CAT_ID": 66981, "ELEMENT_SET_NO": 999, "REV_AT_EPOCH": 378, "BSTAR": -0.021152498, "MEAN_MOTION_DOT": -0.02039411, "MEAN_MOTION_DDOT": 0}, "tle": {"line1": "1 66981U 25288Y   25358.91670139 -.02039411  00000+0 -21152-1 0  9997", "line2": "2 66981  43.0005  92.7794 0001484 271.5023 338.9168 15.67070122  3786"}}, "geometry": {"type": "Point", "coordinates": [-67.07625971363754, -19.544206902342452]}}, {"type": "Feature", "properties": {"norad_id": 66982, "name": "STARLINK-36113", "group": "last-30-days", "lat": -20.745630985059634, "lon": -65.4902625564215, "alt_km": 373.69212597019214, "timestamp": "2025-12-25T07:00:32.766202+00:00", "meta": {"OBJECT_NAME": "STARLINK-36113", "OBJECT_ID": "2025-288Z", "EPOCH": "2025-12-24T22:00:03.000096", "MEAN_MOTION": 15.67067395, "ECCENTRICITY": 0.00014357, "INCLINATION": 43.0007, "RA_OF_ASC_NODE": 92.7741, "ARG_OF_PERICENTER": 270.442, "MEAN_ANOMALY": 341.8966, "EPHEMERIS_TYPE": 0, "CLASSIFICATION_TYPE": "U", "NORAD_CAT_ID": 66982, "ELEMENT_SET_NO": 999, "REV_AT_EPOCH": 378, "BSTAR": -0.021124208, "MEAN_MOTION_DOT": -0.02036781, "MEAN_MOTION_DDOT": 0}, "tle": {"line1": "1 66982U 25288Z   25358.91670139 -.02036781  00000+0 -21124-1 0  9994", "line2": "2 66982  43.0007  92.7741 0001435 270.4420 341.8966 15.67067395  3783"}}, "geometry": {"type": "Point", "coordinates": [-65.4902625564215, -20.745630985059634]}}, {"type": "Feature", "properties": {"norad_id": 66983, "name": "STARLINK-36145", "group": "last-30-days", "lat": -23.10016941985524, "lon": -62.24287053076469, "alt_km": 373.8521562902015, "timestamp": "2025-12-25T07:00:32.766212+00:00", "meta": {"OBJECT_NAME": "STARLINK-36145", "OBJECT_ID": "2025-288AA", "EPOCH": "2025-12-24T22:00:03.000096", "MEAN_MOTION": 15.67073461, "ECCENTRICITY": 0.00014775, "INCLINATION": 43.0005, "RA_OF_ASC_NODE": 92.7643, "ARG_OF_PERICENTER": 272.9844, "MEAN_ANOMALY": 343.1835, "EPHEMERIS_TYPE": 0, "CLASSIFICATION_TYPE": "U", "NORAD_CAT_ID": 66983, "ELEMENT_SET_NO": 999, "REV_AT_EPOCH": 378, "BSTAR": -0.021191481, "MEAN_MOTION_DOT": -0.02042943, "MEAN_MOTION_DDOT": 0}, "tle": {"line1": "1 66983U 25288AA  25358.91670139 -.02042943  00000+0 -21191-1 0  9996", "line2": "2 66983  43.0005  92.7643 0001477 272.9844 343.1835 15.67073461  3787"}}, "geometry": {"type": "Point", "coordinates": [-62.24287053076469, -23.10016941985524]}}, {"type": "Feature", "properties": {"norad_id": 66984, "name": "STARLINK-35591", "group": "last-30-days", "lat": -21.930863927103328, "lon": -63.880419098322506, "alt_km": 373.72974312136466, "timestamp": "2025-12-25T07:00:32.766222+00:00", "meta": {"OBJECT_NAME": "STARLINK-35591", "OBJECT_ID": "2025-288AB", "EPOCH": "2025-12-24T22:00:03.000096", "MEAN_MOTION": 15.67069407, "ECCENTRICITY": 0.00015061, "INCLINATION": 43.0006, "RA_OF_ASC_NODE": 92.7689, "ARG_OF_PERICENTER": 270.4706, "MEAN_ANOMALY": 343.7834, "EPHEMERIS_TYPE": 0, "CLASSIFICATION_TYPE": "U", "NORAD_CAT_ID": 66984, "ELEMENT_SET_NO": 999, "REV_AT_EPOCH": 378, "BSTAR": -0.021143657, "MEAN_MOTION_DOT": -0.0203863, "MEAN_MOTION_DDOT": 0}, "tle": {"line1": "1 66984U 25288AB  25358.91670139 -.02038630  00000+0 -21144-1 0  9993", "line2": "2 66984  43.0006  92.7689 0001506 270.4706 343.7834 15.67069407  3782"}}, "geometry": {"type": "Point", "coordinates": [-63.880419098322506, -21.930863927103328]}}, {"type": "Feature", "properties": {"norad_id": 66985, "name": "STARLINK-36103", "group": "last-30-days", "lat": -24.252581426272876, "lon": -60.576417962719454, "alt_km": 373.85264184155403, "timestamp": "2025-12-25T07:00:32.766234+00:00", "meta": {"OBJECT_NAME": "STARLINK-36103", "OBJECT_ID": "2025-288AC", "EPOCH": "2025-12-24T22:00:03.000096", "MEAN_MOTION": 15.67071755, "ECCENTRICITY": 0.00015325, "INCLINATION": 43.0006, "RA_OF_ASC_NODE": 92.7596, "ARG_OF_PERICENTER": 271.3776, "MEAN_ANOMALY": 346.7092, "EPHEMERIS_TYPE": 0, "CLASSIFICATION_TYPE": "U", "NORAD_CAT_ID": 66985, "ELEMENT_SET_NO": 999, "REV_AT_EPOCH": 378, "BSTAR": -0.021178916, "MEAN_MOTION_DOT": -0.02041802, "MEAN_MOTION_DDOT": 0}, "tle": {"line1": "1 66985U 25288AC  25358.91670139 -.02041802  00000+0 -21179-1 0  9997", "line2": "2 66985  43.0006  92.7596 0001532 271.3776 346.7092 15.67071755  3784"}}, "geometry": {"type": "Point", "coordinates": [-60.576417962719454, -24.252581426272876]}}, {"type": "Feature", "properties": {"norad_id": 66986, "name": "STARLINK-36135", "group": "last-30-days", "lat": -25.385729602213555, "lon": -58.88165667405294, "alt_km": 373.9102324832502, "timestamp": "2025-12-25T07:00:32.766244+00:00", "meta": {"OBJECT_NAME": "STARLINK-36135", "OBJECT_ID": "2025-288AD", "EPOCH": "2025-12-24T22:00:03.000096", "MEAN_MOTION": 15.67069798, "ECCENTRICITY": 0.00015366, "INCLINATION": 43.0004, "RA_OF_ASC_NODE": 92.7536, "ARG_OF_PERICENTER": 272.0557, "MEAN_ANOMALY": 347.9476, "EPHEMERIS_TYPE": 0, "CLASSIFICATION_TYPE": "U", "NORAD_CAT_ID": 66986, "ELEMENT_SET_NO": 999, "REV_AT_EPOCH": 378, "BSTAR": -0.021132641, "MEAN_MOTION_DOT": -0.02037754, "MEAN_MOTION_DDOT": 0}, "tle": {"line1": "1 66986U 25288AD  25358.91670139 -.02037754  00000+0 -21133-1 0  9999", "line2": "2 66986  43.0004  92.7536 0001536 272.0557 347.9476 15.67069798  3789"}}, "geometry": {"type": "Point", "coordinates": [-58.88165667405294, -25.385729602213555]}}, {"type": "Feature", "properties": {"norad_id": 66987, "name": "STARLINK-36147", "group": "last-30-days", "lat": -26.50021188921471, "lon": -57.150811845220964, "alt_km": 373.9995549553041, "timestamp": "2025-12-25T07:00:32.766254+00:00", "meta": {"OBJECT_NAME": "STARLINK-36147", "OBJECT_ID": "2025-288AE", "EPOCH": "2025-12-24T22:00:03.000096", "MEAN_MOTION": 15.67068618, "ECCENTRICITY": 0.00014402, "INCLINATION": 43.0005, "RA_OF_ASC_NODE": 92.7501, "ARG_OF_PERICENTER": 272.0769, "MEAN_ANOMALY": 349.8452, "EPHEMERIS_TYPE": 0, "CLASSIFICATION_TYPE": "U", "NORAD_CAT_ID": 66987, "ELEMENT_SET_NO": 999, "REV_AT_EPOCH": 378, "BSTAR": -0.021131503, "MEAN_MOTION_DOT": -0.02037491, "MEAN_MOTION_DDOT": 0}, "tle": {"line1": "1 66987U 25288AE  25358.91670139 -.02037491  00000+0 -21132-1 0  9997", "line2": "2 66987  43.0005  92.7501 0001440 272.0769 349.8452 15.67068618  3787"}}, "geometry": {"type": "Point", "coordinates": [-57.150811845220964, -26.50021188921471]}}, {"type": "Feature", "properties": {"norad_id": 66988, "name": "YAOGAN-47", "group": "last-30-days", "lat": 22.02525056112161, "lon": 61.37811450024177, "alt_km": 495.53909229006695, "timestamp": "2025-12-25T07:00:32.766265+00:00", "meta": {"OBJECT_NAME": "YAOGAN-47", "OBJECT_ID": "2025-289A", "EPOCH": "2025-12-20T02:21:43.539840", "MEAN_MOTION": 15.23243112, "ECCENTRICITY": 6.467e-05, "INCLINATION": 97.5265, "RA_OF_ASC_NODE": 59.2376, "ARG_OF_PERICENTER": 91.4531, "MEAN_ANOMALY": 268.678, "EPHEMERIS_TYPE": 0, "CLASSIFICATION_TYPE": "U", "NORAD_CAT_ID": 66988, "ELEMENT_SET_NO": 999, "REV_AT_EPOCH": 166, "BSTAR": 0.00010945697, "MEAN_MOTION_DOT": 2.52e-05, "MEAN_MOTION_DDOT": 0}, "tle": {"line1": "1 66988U 25289A   25354.09842060  .00002520  00000+0  10946-3 0  9992", "line2": "2 66988  97.5265  59.2376 0000646  91.4531 268.6780 15.23243112  1668"}}, "geometry": {"type": "Point", "coordinates": [61.37811450024177, 22.02525056112161]}}]}